KUIPER-00008            
1 63724U 25088A   26024.91365581  .00011624  00000+0  96391-3 0  9991
2 63724  51.8900 286.5220 0007517 314.4686  45.5670 14.99180153 41490
KUIPER-00009            
1 63725U 25088B   26026.44180193  .00008377  00000+0  11236-2 0  9991
2 63725  51.9026 293.4510 0009831 323.4735  36.5556 14.80018030 41527
KUIPER-00010            
1 63726U 25088C   26026.36640936  .00004408  00000+0  60716-3 0  9998
2 63726  51.8992 270.2418 0000467  73.6218 286.4795 14.79908295 41468
KUIPER-00011            
1 63727U 25088D   26025.98675653  .00013291  00000+0  17660-2 0  9999
2 63727  51.9004 279.4872 0007889 353.8201   6.2663 14.79989322 41438
KUIPER-00012            
1 63728U 25088E   26025.91681719  .00005482  00000+0  80363-3 0  9997
2 63728  51.9009 264.1777 0008154 351.2730   8.8088 14.76819927 41590
KUIPER-00013            
1 63729U 25088F   26026.03544475  .00008877  00000+0  11938-2 0  9991
2 63729  51.9015 296.7091 0003079 254.3436 105.7187 14.79864549 41258
KUIPER-00014            
1 63730U 25088G   26024.47930518  .00006498  00000+0  87655-3 0  9993
2 63730  51.9018 304.5473 0004726 330.8634  29.2064 14.80122629 40829
KUIPER-00015            
1 63731U 25088H   26026.47898965  .00009330  00000+0  11785-2 0  9993
2 63731  51.9005 305.9974 0009045 297.0057  62.9982 14.82432873 41437
